CCSDS_OMM_VERS = 2.0
CREATION_DATE  = 
ORIGINATOR     = 

OBJECT_NAME    = CZ-2C R/B
OBJECT_ID      = 2022-058K
CENTER_NAME    = EARTH
REF_FRAME      = TEME
TIME_SYSTEM    = UTC
MEAN_ELEMENT_THEORY = SGP/SGP4

EPOCH          = 2025-11-28T16:05:29.951520
MEAN_MOTION    = 15.47481588
ECCENTRICITY   = .00470726
INCLINATION    = 50.1900
RA_OF_ASC_NODE = 115.2451
ARG_OF_PERICENTER = 140.4308
MEAN_ANOMALY   = 220.0112

EPHEMERIS_TYPE = 0
CLASSIFICATION_TYPE = U
NORAD_CAT_ID   = 52794
ELEMENT_SET_NO = 999
REV_AT_EPOCH   = 19445
BSTAR          = .56560912E-3
MEAN_MOTION_DOT = .30556E-3
MEAN_MOTION_DDOT = 0

CCSDS_OMM_VERS = 2.0
CREATION_DATE  = 
ORIGINATOR     = 

OBJECT_NAME    = CZ-2C R/B
OBJECT_ID      = 2022-132E
CENTER_NAME    = EARTH
REF_FRAME      = TEME
TIME_SYSTEM    = UTC
MEAN_ELEMENT_THEORY = SGP/SGP4

EPOCH          = 2025-11-28T21:25:01.545600
MEAN_MOTION    = 15.53572659
ECCENTRICITY   = .0024015
INCLINATION    = 97.2953
RA_OF_ASC_NODE = 328.8399
ARG_OF_PERICENTER = 102.1557
MEAN_ANOMALY   = 258.2389

EPHEMERIS_TYPE = 0
CLASSIFICATION_TYPE = U
NORAD_CAT_ID   = 54039
ELEMENT_SET_NO = 999
REV_AT_EPOCH   = 17468
BSTAR          = .43746E-3
MEAN_MOTION_DOT = .28149E-3
MEAN_MOTION_DDOT = 0

CCSDS_OMM_VERS = 2.0
CREATION_DATE  = 
ORIGINATOR     = 

OBJECT_NAME    = GSLV R/B
OBJECT_ID      = 2022-138AN
CENTER_NAME    = EARTH
REF_FRAME      = TEME
TIME_SYSTEM    = UTC
MEAN_ELEMENT_THEORY = SGP/SGP4

EPOCH          = 2025-11-29T03:27:19.854720
MEAN_MOTION    = 14.96022514
ECCENTRICITY   = .0022681
INCLINATION    = 87.3843
RA_OF_ASC_NODE = 200.0260
ARG_OF_PERICENTER = 150.8488
MEAN_ANOMALY   = 209.4014

EPHEMERIS_TYPE = 0
CLASSIFICATION_TYPE = U
NORAD_CAT_ID   = 54149
ELEMENT_SET_NO = 999
REV_AT_EPOCH   = 16889
BSTAR          = .22522E-3
MEAN_MOTION_DOT = .2567E-4
MEAN_MOTION_DDOT = 0

CCSDS_OMM_VERS = 2.0
CREATION_DATE  = 
ORIGINATOR     = 

OBJECT_NAME    = XRISM
OBJECT_ID      = 2023-137A
CENTER_NAME    = EARTH
REF_FRAME      = TEME
TIME_SYSTEM    = UTC
MEAN_ELEMENT_THEORY = SGP/SGP4

EPOCH          = 2025-11-29T00:30:11.551392
MEAN_MOTION    = 15.10148757
ECCENTRICITY   = .0007583
INCLINATION    = 31.0010
RA_OF_ASC_NODE = 214.1080
ARG_OF_PERICENTER = 106.0567
MEAN_ANOMALY   = 254.0906

EPHEMERIS_TYPE = 0
CLASSIFICATION_TYPE = U
NORAD_CAT_ID   = 57800
ELEMENT_SET_NO = 999
REV_AT_EPOCH   = 12255
BSTAR          = .30725E-3
MEAN_MOTION_DOT = .5234E-4
MEAN_MOTION_DDOT = 0

CCSDS_OMM_VERS = 2.0
CREATION_DATE  = 
ORIGINATOR     = 

OBJECT_NAME    = ACS3
OBJECT_ID      = 2024-077B
CENTER_NAME    = EARTH
REF_FRAME      = TEME
TIME_SYSTEM    = UTC
MEAN_ELEMENT_THEORY = SGP/SGP4

EPOCH          = 2025-11-28T21:11:37.775040
MEAN_MOTION    = 13.84524994
ECCENTRICITY   = .0074931
INCLINATION    = 97.2830
RA_OF_ASC_NODE = 291.5785
ARG_OF_PERICENTER = 5.6268
MEAN_ANOMALY   = 354.5718

EPHEMERIS_TYPE = 0
CLASSIFICATION_TYPE = U
NORAD_CAT_ID   = 59588
ELEMENT_SET_NO = 999
REV_AT_EPOCH   = 8022
BSTAR          = .21418E-1
MEAN_MOTION_DOT = .24592E-3
MEAN_MOTION_DDOT = 0

