CZ-2C R/B               
1 52794U 22058K   25332.67048555  .00030556  00000+0  56561-3 0  9993
2 52794  50.1900 115.2451 0047072 140.4308 220.0112 15.47481588194455
CZ-2C R/B               
1 54039U 22132E   25332.89237900  .00028149  00000+0  43746-3 0  9994
2 54039  97.2953 328.8399 0024015 102.1557 258.2389 15.53572659174684
GSLV R/B                
1 54149U 22138AN  25333.14397980  .00002567  00000+0  22522-3 0  9991
2 54149  87.3843 200.0260 0022681 150.8488 209.4014 14.96022514168897
XRISM                   
1 57800U 23137A   25333.02096703  .00005234  00000+0  30725-3 0  9992
2 57800  31.0010 214.1080 0007583 106.0567 254.0906 15.10148757122551
ACS3                    
1 59588U 24077B   25332.88307610  .00024592  00000+0  21418-1 0  9991
2 59588  97.2830 291.5785 0074931   5.6268 354.5718 13.84524994 80228
